{"type":"Feature","properties":{"source":"OpenStreetMap","license":"ODbL-1.0","attribution":"© OpenStreetMap contributors","date":"2026-09-05T06:16:05Z"},"geometry":{"type":"LineString","coordinates":[[90.36233541882257,23.98678179333058],[90.3640536,23.9855871],[90.3651924,23.9846713],[90.3671679,23.9827246],[90.3713464,23.9783549],[90.372174,23.9777917],[90.3728816,23.9775423],[90.3735429,23.9774444],[90.3823887,23.9775948],[90.3842872,23.9773737],[90.3870899,23.9764124],[90.3884806,23.9757804],[90.3928867,23.9740438],[90.3952695,23.9731887],[90.3960282,23.972732],[90.396338,23.9724333],[90.3967993,23.9717055],[90.3998114,23.9632745],[90.4017658,23.9541657],[90.4021814,23.9534131],[90.4029655,23.9526902],[90.4037498,23.9523024],[90.4044296,23.9521162],[90.4111882,23.9505953],[90.4147324,23.9496377],[90.4168273,23.949295],[90.4228396,23.9485549],[90.4235389,23.9483856],[90.4247461,23.9479784],[90.4291192,23.9462179],[90.4313303,23.9451889],[90.435036,23.9432772],[90.4367748,23.9422791],[90.441668,23.9382006],[90.4435662,23.9367048],[90.4528989,23.929998],[90.4535742,23.9293319],[90.4539263,23.9287786],[90.4550276,23.9263764],[90.4553688,23.9259524],[90.4557743,23.9256057],[90.4656477,23.9208811],[90.4670705,23.9201606],[90.4675747,23.919826],[90.4679286,23.9194578],[90.4682507,23.9189163],[90.4693849,23.9155382],[90.4698943,23.9146108],[90.4702811,23.9141339],[90.4714552,23.9131475],[90.4777604,23.9082846],[90.4782352,23.9078359],[90.4787649,23.9071027],[90.4796248,23.904804],[90.4805084,23.9020918],[90.4822786,23.895933],[90.4839703,23.8919635],[90.4843016,23.8889107],[90.4844705,23.8883686],[90.4848836,23.8877828],[90.4856012,23.8872775],[90.4862309,23.8870532],[90.4897558,23.886206],[90.4980314,23.8854922],[90.4987206,23.885342],[90.4996854,23.8848332],[90.5001391,23.8843654],[90.5004681,23.8838605],[90.5019655,23.8808585],[90.5027517,23.8788854],[90.5037109,23.8760297],[90.5048273,23.8731203],[90.505308,23.8723326],[90.5054981,23.8721408],[90.5061256,23.8717548],[90.508695,23.8705108],[90.5137727,23.8669693],[90.5144307,23.8663814],[90.5152474,23.8652259],[90.5188502,23.8588774],[90.5199285,23.8571033],[90.5235824,23.8530387],[90.5251689,23.8514491],[90.5253447,23.851156],[90.5297793,23.8462001],[90.5386369,23.8364727],[90.5399971,23.8350772],[90.5405504,23.8347398],[90.5409565,23.8346112],[90.5416121,23.8345664],[90.5420778,23.8346229],[90.5498475,23.8377502],[90.5514836,23.8381992],[90.5542195,23.8381893],[90.5566818,23.8384175],[90.5578029,23.8384469],[90.55868,23.838334],[90.5592369,23.8381616],[90.559532,23.837969],[90.5600036,23.8374178],[90.560372,23.8363339],[90.5607259,23.8345532],[90.5611637,23.8328948],[90.5633525,23.8281601],[90.5636448,23.8259341],[90.5640573,23.8240392],[90.5643188,23.8234867],[90.5646894,23.8229628],[90.5649926,23.8210931],[90.5656495,23.8199784],[90.5657843,23.819552],[90.5658678,23.8172288],[90.5660802,23.8159082],[90.5665764,23.814588],[90.5675688,23.8133709],[90.5682662,23.8127427],[90.5685605,23.8122047],[90.5689904,23.8111354],[90.5691528,23.8104461],[90.5692544,23.8092782],[90.5694194,23.8087911],[90.5699394,23.8077679],[90.5700236,23.8074391],[90.5697709,23.8058414],[90.5699099,23.8051643],[90.5703873,23.8037998],[90.5703788,23.8033608],[90.5703015,23.8028967],[90.5700798,23.8023532],[90.5690849,23.8011149],[90.5688613,23.8005962],[90.568709,23.7982611],[90.5687712,23.7976107],[90.5691991,23.7961454],[90.5695407,23.7941382],[90.5696542,23.7912912],[90.5695014,23.7907113],[90.5684605,23.7884984],[90.5682839,23.7874532],[90.568359,23.786928],[90.568903,23.7851286],[90.5688123,23.7850614],[90.5689571,23.784573],[90.5690805,23.7831028],[90.5696598,23.7819026],[90.5699206,23.7810309],[90.570409,23.7760419],[90.5713237,23.7724748],[90.5716907,23.7705507],[90.5722875,23.768919],[90.5728004,23.7679571],[90.5731371,23.7669945],[90.5835151,23.7481786],[90.5859539,23.7435591],[90.5861915,23.7424242],[90.5871488,23.7355408],[90.5875506,23.7323097],[90.5875317,23.7319392],[90.5872723,23.7312867],[90.5867359,23.7306704],[90.586608,23.7303847],[90.5755702,23.7208111],[90.5534443,23.7018541],[90.5522534,23.7004296],[90.5513974,23.6990394],[90.54669667746711,23.69051212232392]]}}